{
  "norad_id": 45223,
  "name": "STARLINK-1212",
  "history": [
    {
      "epoch": "2026-03-28T21:19:51.152736",
      "apogee_km": 403.21347526092904,
      "perigee_km": 397.6890613940086,
      "latitude_deg": -4.5103020678910335,
      "longitude_deg": -132.37649695994332,
      "semi_major_axis_km": 6778.5882683274685,
      "eccentricity": 0.00040749,
      "inclination_deg": 53.0463,
      "raan_deg": 257.4194,
      "arg_perigee_deg": 208.6414,
      "mean_anomaly_deg": 151.4373,
      "mean_motion_rev_day": 15.55585472
    },
    {
      "epoch": "2026-03-28T22:52:22.070208",
      "apogee_km": 403.17405931733356,
      "perigee_km": 397.6603833137151,
      "latitude_deg": -47.585747441086184,
      "longitude_deg": -126.2088108798489,
      "semi_major_axis_km": 6778.554221315524,
      "eccentricity": 0.0004067,
      "inclination_deg": 53.0462,
      "raan_deg": 257.108,
      "arg_perigee_deg": 209.3314,
      "mean_anomaly_deg": 150.7469,
      "mean_motion_rev_day": 15.55597192
    }
  ]
}